CYGNUS NG-23            
1 65616U 25208A   26003.53276902  .00013553  00000+0  25297-3 0  9990
2 65616  51.6327  34.5663 0007560 336.0107  24.0528 15.49066978   225
DRAGONFLY               
1 65729U 98067XH  26003.42437273  .00387428  00000+0  18150-2 0  9990
2 65729  51.6230  24.0476 0008745  42.2754 317.8921 15.81556255 16583
1998-067XK              
1 65731U 98067XK  26003.46760807  .00181227  00000+0  14011-2 0  9990
2 65731  51.6285  26.6310 0005314  17.8507 342.2676 15.70784398 16559
RSP-03                  
1 65732U 98067XL  26003.29504943  .00252732  00000+0  15841-2 0  9991
2 65732  51.6255  26.2072 0006444  23.9890 336.1408 15.75467795 16555
GHS-01                  
1 65733U 98067XM  26002.43676103  .00536437  00000+0  18982-2 0  9991
2 65733  51.6261  27.9593 0009648  41.4531 318.7204 15.87073258 16454
YOTSUBA-KULOVER         
1 65941U 98067XN  26003.35130957  .00124314  00000+0  13336-2 0  9991
2 65941  51.6291  31.1089 0003527  46.9622 313.1667 15.62889433 13234
BOTAN                   
1 65942U 98067XP  26003.36106484  .00199480  00000+0  16993-2 0  9999
2 65942  51.6271  29.6684 0004416  36.8613 323.2687 15.68383653 13257
E-KAGAKU-1              
1 65943U 98067XQ  26003.09546414  .00113099  00000+0  12174-2 0  9990
2 65943  51.6298  32.4065 0002179  34.9595 325.1542 15.62853332 13198
HRC MONOBLOCK CAMERA    
1 66052U 98067XR  26003.56699728  .00046330  00000+0  66044-3 0  9990
2 66052  51.6307  32.5468 0001459 303.4363  56.6489 15.55835558 12238
HTV-X1                  
1 66174U 25241A   26003.53276902  .00013553  00000+0  25297-3 0  9997
2 66174  51.6327  34.5663 0007560 336.0107  24.0528 15.49066978   517
SZ-21 MODULE            
1 66515U 25246C   26003.64603062  .00038373  00000+0  39899-3 0  9994
2 66515  41.4753 242.2924 0002142  30.6119 329.4846 15.63843354  7873
SHENZHOU-22             
1 66645U 25272A   26003.61438977  .00024416  00000+0  29444-3 0  9993
2 66645  41.4656 243.8178 0010531 212.4903 147.5288 15.60137446267400
